{"spkid": "50559862", "covariance": {"epoch": "2459641.5", "labels": ["e", "q", "tp", "node", "peri", "i"], "elements": [{"label": "e", "title": "eccentricity", "value": ".5687636285358882", "units": null, "name": "e", "sigma": 5.41456638789617e-08}, {"label": "q", "sigma": 6.52967963448096e-08, "name": "q", "value": ".5135331018790412", "title": "perihelion distance", "units": "au"}, {"label": "tp", "title": "time of perihelion passage", "value": "2459508.189485400413", "units": "TDB", "sigma": 3.30861795401467e-05, "name": "tp"}, {"sigma": 4.84854381155985e-05, "name": "om", "units": "deg", "value": "198.4907080744098", "title": "longitude of the ascending node", "label": "node"}, {"label": "peri", "units": "deg", "title": "argument of perihelion", "value": "94.86413001168121", "name": "w", "sigma": 4.06260260137989e-05}, {"units": "deg", "title": "inclination", "value": "10.9778443728487", "name": "i", "sigma": 1.03342355872213e-05, "label": "i"}], "data": [["2.931752916893501E-15", "-3.529280701506496E-15", "5.359701930249787E-13", "7.885870048995107E-13", "-3.840381654675218E-13", "-9.979893330734469E-14"], ["-3.529280701506496E-15", "4.26367161289554E-15", "-7.58149054848201E-13", "-1.056973737914231E-12", "5.255149677997963E-13", "1.241589414090819E-13"], ["5.359701930249787E-13", "-7.58149054848201E-13", "1.094695276562825E-9", "9.459806505106929E-10", "-4.647732017699696E-10", "-3.41792170271254E-11"], ["7.885870048995107E-13", "-1.056973737914231E-12", "9.459806505106929E-10", "2.350837709261527E-9", "-1.87734842899539E-9", "-3.109160610830519E-10"], ["-3.840381654675218E-13", "5.255149677997963E-13", "-4.647732017699696E-10", "-1.87734842899539E-9", "1.650473989673862E-9", "2.83054615447806E-10"], ["-9.979893330734469E-14", "1.241589414090819E-13", "-3.41792170271254E-11", "-3.109160610830519E-10", "2.83054615447806E-10", "1.067964251721902E-10"]]}, "elements": [{"value": ".5688491661920048", "title": "eccentricity", "units": null, "name": "e", "sigma": "5.4174E-8", "label": "e"}, {"value": "1.191244877160888", "title": "semi-major axis", "units": "au", "name": "a", "sigma": "9.1875E-9", "label": "a"}, {"units": "au", "title": "perihelion distance", "value": ".5136062220574197", "name": "q", "sigma": "6.5448E-8", "label": "q"}, {"label": "i", "units": "deg", "title": "inclination; angle with respect to x-y ecliptic plane", "value": "10.97308679355317", "name": "i", "sigma": "1.0345E-5"}, {"sigma": "4.8473E-5", "name": "om", "title": "longitude of the ascending node", "value": "198.4224520128855", "units": "deg", "label": "node"}, {"label": "peri", "name": "w", "sigma": "4.0575E-5", "units": "deg", "value": "94.93349616783469", "title": "argument of perihelion"}, {"label": "M", "title": "mean anomaly", "value": "203.3148387744129", "units": "deg", "sigma": "1.2768E-5", "name": "ma"}, {"label": "tp", "units": "TDB", "title": "time of perihelion passage", "value": "2461407.192807322957", "name": "tp", "sigma": "1.5395E-5"}, {"label": "period", "sigma": "5.494E-6", "name": "per", "value": "474.8976230693211", "title": "sidereal orbital period", "units": "d"}, {"title": "mean motion", "value": ".7580581213973577", "units": "deg/d", "name": "n", "sigma": "8.7698E-9", "label": "n"}, {"label": "Q", "sigma": "1.4414E-8", "name": "ad", "title": "aphelion distance", "value": "1.868883532264356", "units": "au"}], "epoch": "2461200.5"}